0292P         2029 03  3.6820  2.500032  0.589887  319.6605   90.8953   24.3225  20250605  12.5  4.0  292P/Li                                                  MPEC 2022-K19
0293P         2027 11 29.0392  2.111555  0.419530   40.9853   78.3612    9.0610  20250605  14.5  4.0  293P/Spacewatch                                          MPEC 2022-L66
0294P         2025 08 11.1902  1.273052  0.600962  237.5840  309.6004   17.7429  20250605  15.5  4.0  294P/LINEAR                                              MPEC 2025-HB5
0295P         2026 07 22.7286  2.026087  0.617634   73.0412    7.3806   21.0848  20250605  12.0  4.0  295P/LINEAR                                              MPEC 2022-K19
0296P         2027 03 20.4495  1.784597  0.485972  350.2356  263.5273   25.3752  20250605  14.0  4.0  296P/Garradd                                             MPEC 2021-N06
0297P         2027 10 18.2620  2.551632  0.285159  142.3628   92.1754   11.2481  20250605  15.0  4.0  297P/Beshore                                             MPC102956
0298P         2027 06 24.7762  2.199821  0.386917  100.6201   52.7859    7.8723  20250605  15.0  4.0  298P/Christensen                                         MPC114609
0299P         2024 04 30.0149  3.155808  0.280934  323.6183  271.5804   10.4690  20250605  11.5  4.0  299P/Catalina-PANSTARRS                                  MPEC 2024-TD8
0300P         2023 04 11.0101  0.830223  0.692092  222.8784   95.6225    5.6766  20250605  16.0  4.0  300P/Catalina                                            MPEC 2023-VM5
0301P         2028 05 17.1235  2.379949  0.586225  193.4331  351.0626   10.3288  20250605  13.0  4.0  301P/LINEAR-NEAT                                         MPC 89014
0302P         2025 03  9.3970  3.288628  0.229340  208.6251  121.7156    6.0357  20250605  12.5  4.0  302P/Lemmon-PANSTARRS                                    MPEC 2024-YC7
0303P         2026 02 19.9150  2.468157  0.510276  357.0296  347.9491    7.0162  20250605  13.5  4.0  303P/NEAT                                                MPC 92278
0304P         2026 03 18.1979  1.257203  0.600846  335.2793   58.9379    2.6056  20250605  16.5  4.0  304P/Ory                                                 MPEC 2022-K19
0305P         2024 11 17.1378  1.418291  0.694089  147.4039  240.0995   11.6706  20250605  18.0  4.0  305P/Skiff                                               MPC182890
0306P         2025 08  1.6474  1.272974  0.592574    0.8972  341.3519    8.3029  20250605  19.0  4.0  306P/LINEAR                                              MPC 92278
0307P         2028 12  2.2647  1.881070  0.675009  222.2537  158.1135    4.4346  20250605  15.0  4.0  307P/LINEAR                                              MPC 92278
0308P         2032 04 30.5386  4.197422  0.364154  333.7576   63.0994    4.8521  20250605  13.0  2.0  308P/Lagerkvist-Carsenty                                 MPEC 2022-C56
0309P         2024 03 28.9494  1.670154  0.618218   49.9180   10.1387   17.0199  20250605  15.0  4.0  309P/LINEAR                                              MPEC 2025-GB9
0310P         2023 10 23.1368  2.416293  0.422075   31.5183    8.8835   13.1202  20250605  13.5  4.0  310P/Hill                                                MPC182891
0311P         2024 01  1.8905  1.935909  0.115494  144.2908  279.1689    4.9713  20250605  17.0  4.0  311P/PANSTARRS                                           MPEC 2025-J72
0312P         2027 03 15.4907  1.990847  0.426672  207.6983  144.6359   19.7461  20250605  16.0  4.0  312P/NEAT                                                MPEC 2024-NE4
0313P         2025 12  2.7306  2.421615  0.234470  254.9843  105.9254   10.9810  20250605  15.0  4.0  313P/Gibbs                                               MPEC 2024-N80
0314P         2016 10 13.6124  4.214871  0.418568  213.8650  267.6230    3.9920  20250605   9.5  4.0  314P/Montani                                             MPC105243
0315P         2027 11 16.5185  2.359094  0.522082   65.9148   68.6390   17.7349  20250605  11.0  4.0  315P/LONEOS                                              MPEC 2023-J29
0316P         2024 10  4.6618  3.717696  0.156638  187.0368  245.8874    9.8741  20250605  13.5  4.0  316P/LONEOS-Christensen                                  MPC182891
0317P         2025 10 30.8644  1.266633  0.572016  334.8874  275.4729   11.9748  20250605  17.5  4.0  317P/WISE                                                MPEC 2020-C98
0318P         2015 10 22.5716  2.455234  0.673278  313.3027   35.6055   17.8645  20250605   8.5  6.0  318P/McNaught-Hartley                                    MPC102103
0319P         2022 03 30.5836  1.188426  0.666413  203.5957  111.3650   15.0967  20250605  15.0  4.0  319P/Catalina-McNaught                                   MPEC 2025-HB5
0320P         2026 06 27.8614  0.975542  0.684896    0.7569  295.9405    4.9028  20250605  20.5  4.0  320P/McNaught                                            MPC 96281
0321P         2023 10 26.5045  0.046006  0.981005  172.7403  165.0264   20.0548  20250605  20.0  4.0  321P/SOHO                                                MPC105243
0322P         2023 08 21.1623  0.050349  0.979930   57.0758  351.3458   11.4484  20250605  19.0  4.0  322P/SOHO                                                MPC102103
0323P         2025 03 14.2314  0.040388  0.983449  353.3259  323.9474    5.2113  20250605  20.0  4.0  323P/SOHO                                                MPC182891
0323P      b  2025 12 16.2397  0.040099  0.986125  353.9662  323.4632    5.4606  20250605  26.0  4.0  323P-B/SOHO                                              MPEC 2024-F21
0323P      c  2025 04  7.1008  0.039790  0.984767  353.2122  324.1882    5.3377  20250605  27.0  4.0  323P-C/SOHO                                              MPEC 2024-F21
0324P         2026 10 14.7667  2.623992  0.152802   57.4193  270.5691   21.3992  20250605  13.0  4.0  324P/LaSagra                                             MPEC 2021-W31
0325P         2022 03 24.1142  1.465204  0.587201  344.9155  256.8575   16.8470  20250605  14.0  4.0  325P/Yang-Gao                                            MPEC 2024-LE0
0326P         2023 12 28.3798  2.761449  0.320496  278.0773   99.7608    2.4737  20250605  13.5  4.0  326P/Hill                                                MPEC 2024-LE0
0327P         2022 09  1.8706  1.558750  0.562521  185.0403  173.9985   36.2310  20250605  16.0  4.0  327P/VanNess                                             MPEC 2024-M41
0328P         2024 07 27.9357  1.872506  0.553146   30.6763  341.5496   17.6790  20250605  14.5  4.0  328P/LONEOS-Tucker                                       MPEC 2024-YC7
0329P         2027 09 25.6037  1.664068  0.678881  343.6016   87.6876   21.7189  20250605  13.5  4.0  329P/LINEAR-Catalina                                     MPC101101
0330P         2033 09  5.4909  2.973059  0.550569  188.8365  293.0837   15.7400  20250605  12.0  4.0  330P/Catalina                                            MPEC 2023-J29
0331P         2025 12 24.5756  2.878521  0.041442  185.5945  216.7425    9.7407  20250605  12.0  4.0  331P/Gibbs                                               MPEC 2024-Q20
0332P         2027 01 19.7215  1.574398  0.489841  152.2974    3.7544    9.3858  20250605  18.0  4.0  332P/Ikeya-Murakami                                      MPEC 2016-K18
0332P      a  2027 01 19.7230  1.574366  0.489848    3.7382  152.3145    9.3856  20250605   9.0  4.0  332P-A/Ikeya-Murakami                                    MPEC 2016-K18
0332P      b  2016 03 17.1650  1.572891  0.489707  152.3711    3.8028    9.3805            19.0  4.0  332P-B/Ikeya-Murakami                                    MPEC 2016-EI8
0332P      c  2027 01 19.6125  1.574332  0.489854    3.7387  152.3058    9.3847  20250605  16.5  4.0  332P-C/Ikeya-Murakami                                    MPEC 2016-K18
0332P      d  2016 03 17.2819  1.572064  0.489778  152.4393    3.7923    9.3761            19.0  4.0  332P-D/Ikeya-Murakami                                    MPEC 2016-ED0
0332P      e  2016 03 17.0610  1.573139  0.489220  152.2825    3.8228    9.3774            21.0  4.0  332P-E/Ikeya-Murakami                                    MPEC 2016-ED0
0332P      f  2016 03 17.8554  1.584174  0.499189  152.8203    3.4757    9.5293            21.0  4.0  332P-F/Ikeya-Murakami                                    MPEC 2016-ED0
0332P      g  2016 03 19.5375  1.549652  0.492004  154.4000    3.6955    9.2523            19.0  4.0  332P-G/Ikeya-Murakami                                    MPEC 2016-ED0
0332P      h  2027 01 20.1461  1.574313  0.489890    3.7384  152.3064    9.3852  20250605  19.0  4.0  332P-H/Ikeya-Murakami                                    MPC100285
0332P      i  2016 03 17.3515  1.573073  0.489555  152.3297    3.8048    9.3791            20.5  2.0  332P-I/Ikeya-Murakami                                    MPEC 2016-ED0
0332P      j  2016 03 17.7739  1.575357  0.494294  152.7712    3.6729    9.4296            20.5  2.0  332P-J/Ikeya-Murakami                                    MPEC 2016-EI8
0333P         2024 11 29.2981  1.112996  0.736284   26.0208  115.7067  132.0224  20250605  15.0  4.0  333P/LINEAR                                              MPC182891
0334P         2017 06  4.3883  4.422555  0.351960   90.0696   90.3625   20.3646  20250605  10.5  4.0  334P/NEAT                                                MPEC 2023-J29
0335P         2022 08 12.5198  1.620974  0.546865  162.3213  330.7917    7.2977  20250605  16.8  4.0  335P/Gibbs                                               MPEC 2023-M14
0336P         2028 05 14.4867  2.788864  0.446129  308.6887  298.1719   17.8707  20250605  13.5  4.0  336P/McNaught                                            MPC105244
0337P         2022 06 26.1778  1.725735  0.483462  166.1502  102.1132   16.9907  20250605  17.0  4.0  337P/WISE                                                MPEC 2024-A43
